OBJECT_NAME,OBJECT_ID,EPOCH,MEAN_MOTION,ECCENTRICITY,INCLINATION,RA_OF_ASC_NODE,ARG_OF_PERICENTER,MEAN_ANOMALY,EPHEMERIS_TYPE,CLASSIFICATION_TYPE,NORAD_CAT_ID,ELEMENT_SET_NO,REV_AT_EPOCH,BSTAR,MEAN_MOTION_DOT,MEAN_MOTION_DDOT
IRIDIUM 156,2018-061H,2026-06-07T18:26:34.333152,14.34219426,.0002132,86.3965,60.6676,81.4797,278.6640,0,U,43576,999,41202,.87659E-4,.265E-5,0
IRIDIUM 164,2018-061J,2026-06-07T17:59:10.396032,14.34217502,.0002068,86.3967,60.7157,88.0712,272.0721,0,U,43577,999,41206,.47897E-4,.154E-5,0
IRIDIUM 159,2018-061K,2026-06-07T17:13:30.338400,14.34219607,.0002308,86.3965,60.6660,85.6433,274.5026,0,U,43578,999,41202,.98795E-4,.296E-5,0
IRIDIUM 180,2019-002A,2026-06-07T18:53:14.905248,14.34218122,.0002255,86.3974,357.5284,89.0973,271.0481,0,U,43922,999,38764,.1524E-4,.62E-6,0
IRIDIUM 176,2019-002B,2026-06-07T13:48:46.753632,14.72254883,.0002194,86.6095,357.5614,90.6064,269.5405,0,U,43923,999,39783,.1395E-3,.904E-5,0
IRIDIUM 168,2019-002C,2026-06-07T20:24:34.966080,14.34217701,.0002199,86.3977,357.5788,89.3098,270.8350,0,U,43924,999,38763,.55046E-5,.35E-6,0
IRIDIUM 173,2019-002D,2026-06-07T20:06:18.817920,14.34217620,.0002251,86.3975,357.4734,86.5666,273.5787,0,U,43925,999,38761,.56764E-4,.179E-5,0
IRIDIUM 169,2019-002E,2026-06-07T17:21:15.801120,14.38610465,.0002178,86.4235,29.1503,71.0682,289.0752,0,U,43926,999,38886,.98075E-4,.32E-5,0
IRIDIUM 172,2019-002F,2026-06-07T19:57:10.914048,14.34218046,.0002255,86.3973,357.4839,88.7632,271.3822,0,U,43927,999,38762,.16103E-4,.65E-6,0
IRIDIUM 175,2019-002G,2026-06-07T15:23:07.418112,14.43607754,.0001284,86.4506,294.5121,220.7402,139.3703,0,U,43928,999,39760,.11252E-3,.401E-5,0
IRIDIUM 171,2019-002H,2026-06-07T19:29:46.919040,14.34217715,.0002007,86.3983,357.7971,87.3177,272.8248,0,U,43929,999,38761,.47535E-5,.33E-6,0
IRIDIUM 170,2019-002J,2026-06-07T18:51:18.261792,14.72253988,.0002571,86.6090,357.4762,89.2452,270.9060,0,U,43930,999,39787,.39085E-4,.271E-5,0
IRIDIUM 167,2019-002K,2026-06-07T19:20:38.893344,14.34217571,.0001861,86.3974,357.5167,85.4087,274.7321,0,U,43931,999,38761,-.10443E-5,.17E-6,0
IRIDIUM 181,2023-068S,2026-06-07T17:55:40.102752,14.43309861,.0002287,86.4503,60.7365,90.7145,269.4318,0,U,56726,999,16107,.10555E-3,.375E-5,0
IRIDIUM 177,2023-068T,2026-06-07T17:21:17.194752,14.80223929,.0002447,86.1961,333.2876,85.6246,274.5255,0,U,56727,999,16496,.17213E-3,.1334E-4,0
IRIDIUM 174,2023-068U,2026-06-07T20:11:22.659072,14.72251472,.0002582,86.6102,357.5995,85.5483,274.6029,0,U,56728,999,16464,.13345E-3,.866E-5,0
IRIDIUM 178,2023-068V,2026-06-07T17:05:37.198176,14.80218398,.000267,86.6548,29.3203,89.1656,270.9872,0,U,56729,999,16496,.15109E-3,.1174E-4,0
IRIDIUM 179,2023-068W,2026-06-07T16:57:55.099008,14.80235009,.0002378,86.6788,38.2738,87.7841,272.3653,0,U,56730,999,16496,.14179E-3,.1104E-4,0
