IRIDIUM 156             
1 43576U 18061H   26158.76845293  .00000265  00000+0  87659-4 0  9998
2 43576  86.3965  60.6676 0002132  81.4797 278.6640 14.34219426412027
IRIDIUM 164             
1 43577U 18061J   26158.74942588  .00000154  00000+0  47897-4 0  9999
2 43577  86.3967  60.7157 0002068  88.0712 272.0721 14.34217502412068
IRIDIUM 159             
1 43578U 18061K   26158.71771225  .00000296  00000+0  98795-4 0  9995
2 43578  86.3965  60.6660 0002308  85.6433 274.5026 14.34219607412024
IRIDIUM 180             
1 43922U 19002A   26158.78697807  .00000062  00000+0  15240-4 0  9999
2 43922  86.3974 357.5284 0002255  89.0973 271.0481 14.34218122387642
IRIDIUM 176             
1 43923U 19002B   26158.57554113  .00000904  00000+0  13950-3 0  9999
2 43923  86.6095 357.5614 0002194  90.6064 269.5405 14.72254883397834
IRIDIUM 168             
1 43924U 19002C   26158.85040470  .00000035  00000+0  55046-5 0  9996
2 43924  86.3977 357.5788 0002199  89.3098 270.8350 14.34217701387637
IRIDIUM 173             
1 43925U 19002D   26158.83771780  .00000179  00000+0  56764-4 0  9996
2 43925  86.3975 357.4734 0002251  86.5666 273.5787 14.34217620387617
IRIDIUM 169             
1 43926U 19002E   26158.72309955  .00000320  00000+0  98075-4 0  9995
2 43926  86.4235  29.1503 0002178  71.0682 289.0752 14.38610465388860
IRIDIUM 172             
1 43927U 19002F   26158.83137632  .00000065  00000+0  16103-4 0  9997
2 43927  86.3973 357.4839 0002255  88.7632 271.3822 14.34218046387624
IRIDIUM 175             
1 43928U 19002G   26158.64105808  .00000401  00000+0  11252-3 0  9990
2 43928  86.4506 294.5121 0001284 220.7402 139.3703 14.43607754397605
IRIDIUM 171             
1 43929U 19002H   26158.81234860  .00000033  00000+0  47535-5 0  9997
2 43929  86.3983 357.7971 0002007  87.3177 272.8248 14.34217715387610
IRIDIUM 170             
1 43930U 19002J   26158.78562803  .00000271  00000+0  39085-4 0  9990
2 43930  86.6090 357.4762 0002571  89.2452 270.9060 14.72253988397876
IRIDIUM 167             
1 43931U 19002K   26158.80600571  .00000017  00000+0 -10443-5 0  9996
2 43931  86.3974 357.5167 0001861  85.4087 274.7321 14.34217571387617
IRIDIUM 181             
1 56726U 23068S   26158.74699193  .00000375  00000+0  10555-3 0  9998
2 56726  86.4503  60.7365 0002287  90.7145 269.4318 14.43309861161073
IRIDIUM 177             
1 56727U 23068T   26158.72311568  .00001334  00000+0  17213-3 0  9998
2 56727  86.1961 333.2876 0002447  85.6246 274.5255 14.80223929164966
IRIDIUM 174             
1 56728U 23068U   26158.84123448  .00000866  00000+0  13345-3 0  9991
2 56728  86.6102 357.5995 0002582  85.5483 274.6029 14.72251472164642
IRIDIUM 178             
1 56729U 23068V   26158.71223609  .00001174  00000+0  15109-3 0  9991
2 56729  86.6548  29.3203 0002670  89.1656 270.9872 14.80218398164962
IRIDIUM 179             
1 56730U 23068W   26158.70688772  .00001104  00000+0  14179-3 0  9997
2 56730  86.6788  38.2738 0002378  87.7841 272.3653 14.80235009164968
